{
  "type": "FeatureCollection",
  "name": "Verified DLS parcels beneath published Ergates listing pins",
  "source": "Department of Lands and Surveys, Republic of Cyprus — INSPIRE Cadastral Parcels",
  "sourceUrl": "https://eservices.dls.moi.gov.cy/inspire/rest/services/INSPIRE/CP_CadastralParcels/MapServer/1/query",
  "generatedAt": "2026-09-08T17:11:26.374Z",
  "matchingRule": "Included only when the official parcel number matches a published parcel number or official area is within 3% (minimum tolerance 10 m²) of a published listing area.",
  "features": [
    {
      "type": "Feature",
      "id": 166580,
      "geometry": {
        "type": "Polygon",
        "coordinates": [
          [
            [
              33.25266149200007,
              35.052530740112616
            ],
            [
              33.25197326500006,
              35.05290245011262
            ],
            [
              33.251858198000036,
              35.05271835311259
            ],
            [
              33.25184897400004,
              35.052703594112586
            ],
            [
              33.251829273000055,
              35.05267207411258
            ],
            [
              33.25251793300003,
              35.0523272091126
            ],
            [
              33.25266149200007,
              35.052530740112616
            ]
          ]
        ]
      },
      "properties": {
        "propertyId": "erg-25b94573b",
        "propertyNumber": 12,
        "pinKey": "33.2522957,35.0524546",
        "coordinateAccuracy": "approximate",
        "officialArea": 2033,
        "officialParcelNumber": "475",
        "nationalCadastralRef": "1228-30/42-0-0-475",
        "listedAreas": [
          1975
        ],
        "listedParcelNumbers": [
          "638"
        ],
        "matchReason": "area"
      }
    },
    {
      "type": "Feature",
      "id": 1570601,
      "geometry": {
        "type": "Polygon",
        "coordinates": [
          [
            [
              33.243153224000025,
              35.05970016711254
            ],
            [
              33.24314846100003,
              35.05970236611253
            ],
            [
              33.243254696000065,
              35.06002951811254
            ],
            [
              33.243289368000035,
              35.060070498112545
            ],
            [
              33.24295384800006,
              35.06007106711254
            ],
            [
              33.24289455300004,
              35.060071167112504
            ],
            [
              33.242286719000056,
              35.06006120011253
            ],
            [
              33.242307651000026,
              35.0599031761125
            ],
            [
              33.24236727900006,
              35.059740307112534
            ],
            [
              33.24247295200007,
              35.059570359112556
            ],
            [
              33.24312880500003,
              35.059626720112504
            ],
            [
              33.243153224000025,
              35.05970016711254
            ]
          ]
        ]
      },
      "properties": {
        "propertyId": "erg-25b94573b",
        "propertyNumber": 12,
        "pinKey": "33.2427860,35.0598180",
        "coordinateAccuracy": "published",
        "officialArea": 4030,
        "officialParcelNumber": "638",
        "nationalCadastralRef": "1230-30/42W1-0-6-638",
        "listedAreas": [
          1975
        ],
        "listedParcelNumbers": [
          "638"
        ],
        "matchReason": "parcel-number"
      }
    },
    {
      "type": "Feature",
      "id": 1483345,
      "geometry": {
        "type": "Polygon",
        "coordinates": [
          [
            [
              33.23681414500003,
              35.05837650611254
            ],
            [
              33.23655968600008,
              35.058572078112526
            ],
            [
              33.23645243300007,
              35.05864076111252
            ],
            [
              33.236179019000076,
              35.05881585111255
            ],
            [
              33.23605658200006,
              35.05862867711253
            ],
            [
              33.23594961400004,
              35.058465150112546
            ],
            [
              33.236097305000044,
              35.05836313811253
            ],
            [
              33.23627322300007,
              35.05824161811255
            ],
            [
              33.23645705900003,
              35.058113917112536
            ],
            [
              33.236755197000036,
              35.05790868611254
            ],
            [
              33.23681945000004,
              35.05822803211253
            ],
            [
              33.23681414500003,
              35.05837650611254
            ]
          ]
        ]
      },
      "properties": {
        "propertyId": "erg-4226dc44c",
        "propertyNumber": 21,
        "pinKey": "33.2363215,35.0584440",
        "coordinateAccuracy": "approximate",
        "officialArea": 3831,
        "officialParcelNumber": "883",
        "nationalCadastralRef": "1230-30/41E2-0-4-883",
        "listedAreas": [
          3830
        ],
        "listedParcelNumbers": [],
        "matchReason": "area"
      }
    },
    {
      "type": "Feature",
      "id": 171639,
      "geometry": {
        "type": "Polygon",
        "coordinates": [
          [
            [
              33.23994862300003,
              35.04755117811265
            ],
            [
              33.239666691000025,
              35.04777155311267
            ],
            [
              33.23927381100004,
              35.047418516112664
            ],
            [
              33.239607008000064,
              35.04719542911266
            ],
            [
              33.239762711000026,
              35.04729441411268
            ],
            [
              33.23986202900006,
              35.047371717112696
            ],
            [
              33.23993059800006,
              35.047449045112664
            ],
            [
              33.24001080200003,
              35.047498387112675
            ],
            [
              33.23994862300003,
              35.04755117811265
            ]
          ]
        ]
      },
      "properties": {
        "propertyId": "erg-42514e138",
        "propertyNumber": 22,
        "pinKey": "33.2396510,35.0474930",
        "coordinateAccuracy": "exact",
        "officialArea": 2158,
        "officialParcelNumber": "495",
        "nationalCadastralRef": "1230-30/50W1-0-5-495",
        "listedAreas": [
          2165
        ],
        "listedParcelNumbers": [],
        "matchReason": "area"
      }
    },
    {
      "type": "Feature",
      "id": 171126,
      "geometry": {
        "type": "Polygon",
        "coordinates": [
          [
            [
              33.237451368000045,
              35.05785178711254
            ],
            [
              33.237276000000065,
              35.05788417611255
            ],
            [
              33.237092346000054,
              35.05770557411254
            ],
            [
              33.23706696900006,
              35.057685170112556
            ],
            [
              33.23704203000006,
              35.05763755811257
            ],
            [
              33.23713167600005,
              35.057487925112575
            ],
            [
              33.237496521000025,
              35.05771200611255
            ],
            [
              33.237451368000045,
              35.05785178711254
            ]
          ]
        ]
      },
      "properties": {
        "propertyId": "erg-48eed1bb2",
        "propertyNumber": 27,
        "pinKey": "33.2372530,35.0576860",
        "coordinateAccuracy": "approximate",
        "officialArea": 995,
        "officialParcelNumber": "981",
        "nationalCadastralRef": "1230-30/41E2-0-4-981",
        "listedAreas": [
          997
        ],
        "listedParcelNumbers": [],
        "matchReason": "area"
      }
    },
    {
      "type": "Feature",
      "id": 1527823,
      "geometry": {
        "type": "Polygon",
        "coordinates": [
          [
            [
              33.23591049300006,
              35.05835026211257
            ],
            [
              33.23589812600005,
              35.05836016311257
            ],
            [
              33.23588396300005,
              35.05836827511255
            ],
            [
              33.235868382000035,
              35.058374383112536
            ],
            [
              33.23585179900004,
              35.05837832211255
            ],
            [
              33.235834658000044,
              35.058379988112534
            ],
            [
              33.23581741500004,
              35.05837933611256
            ],
            [
              33.23580053200005,
              35.05837638411251
            ],
            [
              33.23578445900006,
              35.05837121011254
            ],
            [
              33.23576962600003,
              35.058363953112554
            ],
            [
              33.23575642800006,
              35.05835480711254
            ],
            [
              33.23574521700004,
              35.05834401411254
            ],
            [
              33.23565883300006,
              35.058226430112526
            ],
            [
              33.23592459900004,
              35.05809593611256
            ],
            [
              33.23594463300003,
              35.058220652112524
            ],
            [
              33.23591162100007,
              35.05834098611256
            ],
            [
              33.23591049300006,
              35.05835026211257
            ]
          ]
        ]
      },
      "properties": {
        "propertyId": "erg-4ca55ef77",
        "propertyNumber": 29,
        "pinKey": "33.2358910,35.0582500",
        "coordinateAccuracy": "published",
        "officialArea": 500,
        "officialParcelNumber": "1011",
        "nationalCadastralRef": "1230-30/41E2-0-4-1011",
        "listedAreas": [
          521
        ],
        "listedParcelNumbers": [
          "1011"
        ],
        "matchReason": "parcel-number"
      }
    },
    {
      "type": "Feature",
      "id": 171797,
      "geometry": {
        "type": "Polygon",
        "coordinates": [
          [
            [
              33.248835986000074,
              35.06494444111249
            ],
            [
              33.248737513000044,
              35.064996159112496
            ],
            [
              33.248610405000086,
              35.06484812711247
            ],
            [
              33.24867523200004,
              35.06477184811249
            ],
            [
              33.248647978000065,
              35.06467962611244
            ],
            [
              33.248867060000066,
              35.064545572112436
            ],
            [
              33.249041068000054,
              35.064439096112466
            ],
            [
              33.24908700300006,
              35.06441299611245
            ],
            [
              33.24909522200005,
              35.06442492311247
            ],
            [
              33.24916693900008,
              35.06453266211249
            ],
            [
              33.24922282700003,
              35.064631808112466
            ],
            [
              33.24926080300003,
              35.064686605112485
            ],
            [
              33.249026386000025,
              35.06482879511245
            ],
            [
              33.248975345000076,
              35.06486417411246
            ],
            [
              33.24893024100004,
              35.06489238711245
            ],
            [
              33.24888311400008,
              35.0649184141125
            ],
            [
              33.248835986000074,
              35.06494444111249
            ]
          ]
        ]
      },
      "properties": {
        "propertyId": "erg-5fa99f357",
        "propertyNumber": 32,
        "pinKey": "33.2489350,35.0646370",
        "coordinateAccuracy": "approximate",
        "officialArea": 1945,
        "officialParcelNumber": "106",
        "nationalCadastralRef": "1230-30/42W1-0-6-106",
        "listedAreas": [
          1933
        ],
        "listedParcelNumbers": [],
        "matchReason": "area"
      }
    },
    {
      "type": "Feature",
      "id": 171447,
      "geometry": {
        "type": "Polygon",
        "coordinates": [
          [
            [
              33.24136760500005,
              35.05006199511264
            ],
            [
              33.241232481000054,
              35.05008080611262
            ],
            [
              33.24116709800006,
              35.04995346611267
            ],
            [
              33.241156158000024,
              35.04993421411265
            ],
            [
              33.241012308000045,
              35.04968107411259
            ],
            [
              33.24146757600005,
              35.04952275011263
            ],
            [
              33.24162694200003,
              35.05002118811266
            ],
            [
              33.24162270800008,
              35.05004425411262
            ],
            [
              33.24152859000004,
              35.05006726711265
            ],
            [
              33.24136760500005,
              35.05006199511264
            ]
          ]
        ]
      },
      "properties": {
        "propertyId": "erg-b3960c589",
        "propertyNumber": 50,
        "pinKey": "33.2413712,35.0497704",
        "coordinateAccuracy": "exact",
        "officialArea": 2185,
        "officialParcelNumber": "338",
        "nationalCadastralRef": "1230-30/50W1-0-5-338",
        "listedAreas": [
          2202
        ],
        "listedParcelNumbers": [],
        "matchReason": "area"
      }
    },
    {
      "type": "Feature",
      "id": 172257,
      "geometry": {
        "type": "Polygon",
        "coordinates": [
          [
            [
              33.244219603000026,
              35.05253736411259
            ],
            [
              33.244149976000074,
              35.05254618411259
            ],
            [
              33.24413989100003,
              35.052512849112595
            ],
            [
              33.24412122000007,
              35.05243592411261
            ],
            [
              33.24411404800003,
              35.052395687112586
            ],
            [
              33.24411405800004,
              35.052329037112585
            ],
            [
              33.24410403900003,
              35.05224856611261
            ],
            [
              33.24407384700003,
              35.052160984112625
            ],
            [
              33.24410493900007,
              35.052142039112596
            ],
            [
              33.24442678700007,
              35.05202735811264
            ],
            [
              33.24461265600007,
              35.052402334112614
            ],
            [
              33.24448005100004,
              35.05245772311264
            ],
            [
              33.24435521300007,
              35.0525128161126
            ],
            [
              33.244219603000026,
              35.05253736411259
            ]
          ]
        ]
      },
      "properties": {
        "propertyId": "erg-b3d960c7d",
        "propertyNumber": 51,
        "pinKey": "33.2443660,35.0522690",
        "coordinateAccuracy": "approximate",
        "officialArea": 1831,
        "officialParcelNumber": "416",
        "nationalCadastralRef": "1230-30/42W2-0-7-416",
        "listedAreas": [
          1803
        ],
        "listedParcelNumbers": [
          "416"
        ],
        "matchReason": "parcel-number-and-area"
      }
    },
    {
      "type": "Feature",
      "id": 1483340,
      "geometry": {
        "type": "Polygon",
        "coordinates": [
          [
            [
              33.24019019600007,
              35.05642288911258
            ],
            [
              33.239929216000064,
              35.05651329511255
            ],
            [
              33.239852066000026,
              35.056335853112564
            ],
            [
              33.239851291000036,
              35.05633404411253
            ],
            [
              33.239852504000055,
              35.05633361211257
            ],
            [
              33.24011152400004,
              35.05624307011255
            ],
            [
              33.24019019600007,
              35.05642288911258
            ]
          ]
        ]
      },
      "properties": {
        "propertyId": "erg-b80c7a981",
        "propertyNumber": 52,
        "pinKey": "33.2400210,35.0563770",
        "coordinateAccuracy": "published",
        "officialArea": 545,
        "officialParcelNumber": "774",
        "nationalCadastralRef": "1230-30/42W2-0-4-774",
        "listedAreas": [
          537
        ],
        "listedParcelNumbers": [
          "774"
        ],
        "matchReason": "parcel-number-and-area"
      }
    },
    {
      "type": "Feature",
      "id": 171652,
      "geometry": {
        "type": "Polygon",
        "coordinates": [
          [
            [
              33.23927381100004,
              35.047418516112664
            ],
            [
              33.23892876700006,
              35.047659867112635
            ],
            [
              33.23857667900006,
              35.04734482511264
            ],
            [
              33.23905993300008,
              35.046971426112684
            ],
            [
              33.239115275000074,
              35.04691042211265
            ],
            [
              33.23918338100004,
              35.04690303211265
            ],
            [
              33.239318625000074,
              35.046887022112685
            ],
            [
              33.23949368800003,
              35.04706843411264
            ],
            [
              33.239607008000064,
              35.04719542911266
            ],
            [
              33.23927381100004,
              35.047418516112664
            ]
          ]
        ]
      },
      "properties": {
        "propertyId": "erg-e4c07552a",
        "propertyNumber": 65,
        "pinKey": "33.2391400,35.0472490",
        "coordinateAccuracy": "exact",
        "officialArea": 4064,
        "officialParcelNumber": "503",
        "nationalCadastralRef": "1230-30/50W1-0-5-503",
        "listedAreas": [
          4070
        ],
        "listedParcelNumbers": [],
        "matchReason": "area"
      }
    }
  ]
}
